[{"OBJECT_NAME":"OCO 2","OBJECT_ID":"2014-035A","EPOCH":"2026-03-04T02:10:40.780128","MEAN_MOTION":14.57086441,"ECCENTRICITY":0.0001149,"INCLINATION":98.2193,"RA_OF_ASC_NODE":6.0169,"ARG_OF_PERICENTER":91.7684,"MEAN_ANOMALY":268.3646,"EPHEMERIS_TYPE":0,"CLASSIFICATION_TYPE":"U","NORAD_CAT_ID":40059,"ELEMENT_SET_NO":999,"REV_AT_EPOCH":62074,"BSTAR":0.0001882,"MEAN_MOTION_DOT":8.02e-6,"MEAN_MOTION_DDOT":0},{"OBJECT_NAME":"BRITE-PL2 (HEWELIUSZ)","OBJECT_ID":"2014-049B","EPOCH":"2026-03-03T18:43:02.756928","MEAN_MOTION":14.94142812,"ECCENTRICITY":0.00155044,"INCLINATION":97.8981,"RA_OF_ASC_NODE":174.0764,"ARG_OF_PERICENTER":99.559,"MEAN_ANOMALY":260.7382,"EPHEMERIS_TYPE":0,"CLASSIFICATION_TYPE":"U","NORAD_CAT_ID":40119,"ELEMENT_SET_NO":999,"REV_AT_EPOCH":62570,"BSTAR":0.00034734482,"MEAN_MOTION_DOT":3.666e-5,"MEAN_MOTION_DDOT":0},{"OBJECT_NAME":"MMS 1","OBJECT_ID":"2015-011A","EPOCH":"2026-03-04T06:00:01.999296","MEAN_MOTION":0.28255593,"ECCENTRICITY":0.8412134,"INCLINATION":70.7289,"RA_OF_ASC_NODE":350.2286,"ARG_OF_PERICENTER":165.2963,"MEAN_ANOMALY":34.8637,"EPHEMERIS_TYPE":0,"CLASSIFICATION_TYPE":"U","NORAD_CAT_ID":40482,"ELEMENT_SET_NO":999,"REV_AT_EPOCH":133,"BSTAR":0,"MEAN_MOTION_DOT":-1.952e-5,"MEAN_MOTION_DDOT":0},{"OBJECT_NAME":"MMS 2","OBJECT_ID":"2015-011B","EPOCH":"2026-03-04T06:00:01.999296","MEAN_MOTION":0.28255549,"ECCENTRICITY":0.8412865,"INCLINATION":70.7292,"RA_OF_ASC_NODE":350.2307,"ARG_OF_PERICENTER":165.3024,"MEAN_ANOMALY":34.8471,"EPHEMERIS_TYPE":0,"CLASSIFICATION_TYPE":"U","NORAD_CAT_ID":40483,"ELEMENT_SET_NO":999,"REV_AT_EPOCH":133,"BSTAR":0,"MEAN_MOTION_DOT":-1.952e-5,"MEAN_MOTION_DDOT":0},{"OBJECT_NAME":"MMS 3","OBJECT_ID":"2015-011C","EPOCH":"2026-03-04T06:00:01.999296","MEAN_MOTION":0.28248646,"ECCENTRICITY":0.8412354,"INCLINATION":70.7318,"RA_OF_ASC_NODE":350.2349,"ARG_OF_PERICENTER":165.3013,"MEAN_ANOMALY":34.8419,"EPHEMERIS_TYPE":0,"CLASSIFICATION_TYPE":"U","NORAD_CAT_ID":40484,"ELEMENT_SET_NO":999,"REV_AT_EPOCH":133,"BSTAR":0,"MEAN_MOTION_DOT":-1.952e-5,"MEAN_MOTION_DDOT":0},{"OBJECT_NAME":"MMS 4","OBJECT_ID":"2015-011D","EPOCH":"2026-03-04T06:00:01.999296","MEAN_MOTION":0.28255477,"ECCENTRICITY":0.8411652,"INCLINATION":70.7297,"RA_OF_ASC_NODE":350.2305,"ARG_OF_PERICENTER":165.3039,"MEAN_ANOMALY":34.8413,"EPHEMERIS_TYPE":0,"CLASSIFICATION_TYPE":"U","NORAD_CAT_ID":40485,"ELEMENT_SET_NO":999,"REV_AT_EPOCH":133,"BSTAR":0,"MEAN_MOTION_DOT":-1.952e-5,"MEAN_MOTION_DDOT":0},{"OBJECT_NAME":"ASTROSAT","OBJECT_ID":"2015-052A","EPOCH":"2026-03-03T22:27:34.652736","MEAN_MOTION":14.82279665,"ECCENTRICITY":0.0008399,"INCLINATION":5.9956,"RA_OF_ASC_NODE":192.8448,"ARG_OF_PERICENTER":328.5004,"MEAN_ANOMALY":31.4621,"EPHEMERIS_TYPE":0,"CLASSIFICATION_TYPE":"U","NORAD_CAT_ID":40930,"ELEMENT_SET_NO":999,"REV_AT_EPOCH":56418,"BSTAR":0.00023142,"MEAN_MOTION_DOT":2.565e-5,"MEAN_MOTION_DDOT":0},{"OBJECT_NAME":"DAMPE","OBJECT_ID":"2015-078A","EPOCH":"2026-03-04T04:15:49.031712","MEAN_MOTION":15.30476679,"ECCENTRICITY":0.00139,"INCLINATION":97.4575,"RA_OF_ASC_NODE":68.1411,"ARG_OF_PERICENTER":88.6638,"MEAN_ANOMALY":271.6195,"EPHEMERIS_TYPE":0,"CLASSIFICATION_TYPE":"U","NORAD_CAT_ID":41173,"ELEMENT_SET_NO":999,"REV_AT_EPOCH":56848,"BSTAR":9.8003e-5,"MEAN_MOTION_DOT":2.817e-5,"MEAN_MOTION_DDOT":0},{"OBJECT_NAME":"PISAT","OBJECT_ID":"2016-059B","EPOCH":"2026-03-03T13:23:02.190336","MEAN_MOTION":14.68755523,"ECCENTRICITY":0.0029051,"INCLINATION":97.8188,"RA_OF_ASC_NODE":67.5655,"ARG_OF_PERICENTER":180.1556,"MEAN_ANOMALY":179.9646,"EPHEMERIS_TYPE":0,"CLASSIFICATION_TYPE":"U","NORAD_CAT_ID":41784,"ELEMENT_SET_NO":999,"REV_AT_EPOCH":50423,"BSTAR":0.00025467,"MEAN_MOTION_DOT":1.447e-5,"MEAN_MOTION_DDOT":0},{"OBJECT_NAME":"HXMT (HUIYAN)","OBJECT_ID":"2017-034A","EPOCH":"2026-03-04T04:22:53.300640","MEAN_MOTION":15.17375601,"ECCENTRICITY":0.0032357,"INCLINATION":43.0149,"RA_OF_ASC_NODE":47.2877,"ARG_OF_PERICENTER":202.2175,"MEAN_ANOMALY":157.7273,"EPHEMERIS_TYPE":0,"CLASSIFICATION_TYPE":"U","NORAD_CAT_ID":42758,"ELEMENT_SET_NO":999,"REV_AT_EPOCH":48170,"BSTAR":0.00038436,"MEAN_MOTION_DOT":7.688e-5,"MEAN_MOTION_DDOT":0},{"OBJECT_NAME":"FLYING LAPTOP","OBJECT_ID":"2017-042G","EPOCH":"2026-03-04T04:13:58.779264","MEAN_MOTION":15.00470699,"ECCENTRICITY":0.0018555,"INCLINATION":97.425,"RA_OF_ASC_NODE":223.0967,"ARG_OF_PERICENTER":113.2625,"MEAN_ANOMALY":247.0555,"EPHEMERIS_TYPE":0,"CLASSIFICATION_TYPE":"U","NORAD_CAT_ID":42831,"ELEMENT_SET_NO":999,"REV_AT_EPOCH":47070,"BSTAR":0.00034263,"MEAN_MOTION_DOT":4.272e-5,"MEAN_MOTION_DDOT":0},{"OBJECT_NAME":"ZHANGHENG 1-01 (CSES-1)","OBJECT_ID":"2018-015C","EPOCH":"2026-03-04T04:40:19.871616","MEAN_MOTION":15.20890307,"ECCENTRICITY":0.0014832,"INCLINATION":97.6741,"RA_OF_ASC_NODE":226.824,"ARG_OF_PERICENTER":265.0246,"MEAN_ANOMALY":94.9296,"EPHEMERIS_TYPE":0,"CLASSIFICATION_TYPE":"U","NORAD_CAT_ID":43194,"ELEMENT_SET_NO":999,"REV_AT_EPOCH":44868,"BSTAR":0.00070475,"MEAN_MOTION_DOT":0.0001557,"MEAN_MOTION_DDOT":0},{"OBJECT_NAME":"SALSAT","OBJECT_ID":"2020-068K","EPOCH":"2026-03-03T18:42:46.219968","MEAN_MOTION":15.28039347,"ECCENTRICITY":0.00087313,"INCLINATION":97.8847,"RA_OF_ASC_NODE":59.5668,"ARG_OF_PERICENTER":321.6728,"MEAN_ANOMALY":38.3888,"EPHEMERIS_TYPE":0,"CLASSIFICATION_TYPE":"U","NORAD_CAT_ID":46495,"ELEMENT_SET_NO":999,"REV_AT_EPOCH":29925,"BSTAR":0.00046597086,"MEAN_MOTION_DOT":0.00012684,"MEAN_MOTION_DDOT":0},{"OBJECT_NAME":"IXPE","OBJECT_ID":"2021-121A","EPOCH":"2026-03-04T04:00:03.000096","MEAN_MOTION":15.09118311,"ECCENTRICITY":0.0007051,"INCLINATION":0.2303,"RA_OF_ASC_NODE":30.9259,"ARG_OF_PERICENTER":290.2399,"MEAN_ANOMALY":47.6019,"EPHEMERIS_TYPE":0,"CLASSIFICATION_TYPE":"U","NORAD_CAT_ID":49954,"ELEMENT_SET_NO":999,"REV_AT_EPOCH":571,"BSTAR":0.00095187,"MEAN_MOTION_DOT":0.00016504,"MEAN_MOTION_DDOT":0}]
