OCO 2                   
1 40059U 14035A   26063.09074977  .00000802  00000+0  18820-3 0  9992
2 40059  98.2193   6.0169 0001149  91.7684 268.3646 14.57086441620748
BRITE-PL2 (HEWELIUSZ)   
1 40119U 14049B   26062.77989302  .00003666  00000+0  34734-3 0  9998
2 40119  97.8981 174.0764 0015504  99.5590 260.7382 14.94142812625704
MMS 1                   
1 40482U 15011A   26063.25002314 -.00001952  00000+0  00000+0 0  9996
2 40482  70.7289 350.2286 8412134 165.2963  34.8637  0.28255593  1331
MMS 2                   
1 40483U 15011B   26063.25002314 -.00001952  00000+0  00000+0 0  9997
2 40483  70.7292 350.2307 8412865 165.3024  34.8471  0.28255549  1337
MMS 3                   
1 40484U 15011C   26063.25002314 -.00001952  00000+0  00000+0 0  9998
2 40484  70.7318 350.2349 8412354 165.3013  34.8419  0.28248646  1336
MMS 4                   
1 40485U 15011D   26063.25002314 -.00001952  00000+0  00000+0 0  9999
2 40485  70.7297 350.2305 8411652 165.3039  34.8413  0.28255477  1337
ASTROSAT                
1 40930U 15052A   26062.93581774  .00002565  00000+0  23142-3 0  9991
2 40930   5.9956 192.8448 0008399 328.5004  31.4621 14.82279665564180
DAMPE                   
1 41173U 15078A   26063.17765083  .00002817  00000+0  98003-4 0  9992
2 41173  97.4575  68.1411 0013900  88.6638 271.6195 15.30476679568488
PISAT                   
1 41784U 16059B   26062.55766424  .00001447  00000+0  25467-3 0  9992
2 41784  97.8188  67.5655 0029051 180.1556 179.9646 14.68755523504236
HXMT (HUIYAN)           
1 42758U 17034A   26063.18256135  .00007688  00000+0  38436-3 0  9994
2 42758  43.0149  47.2877 0032357 202.2175 157.7273 15.17375601481701
FLYING LAPTOP           
1 42831U 17042G   26063.17637476  .00004272  00000+0  34263-3 0  9995
2 42831  97.4250 223.0967 0018555 113.2625 247.0555 15.00470699470707
ZHANGHENG 1-01 (CSES-1) 
1 43194U 18015C   26063.19467444  .00015570  00000+0  70475-3 0  9995
2 43194  97.6741 226.8240 0014832 265.0246  94.9296 15.20890307448688
SALSAT                  
1 46495U 20068K   26062.77970162  .00012684  00000+0  46597-3 0  9993
2 46495  97.8847  59.5668 0008731 321.6728  38.3888 15.28039347299257
IXPE                    
1 49954U 21121A   26063.16670139  .00016504  00000+0  95187-3 0  9996
2 49954   0.2303  30.9259 0007051 290.2399  47.6019 15.09118311  5716
